[{"spaceTrack":{"CCSDS_OMM_VERS":"2.0","COMMENT":"GENERATED VIA SPACE-TRACK.ORG API","CREATION_DATE":"2021-07-02T17:51:43","ORIGINATOR":"18 SPCS","OBJECT_NAME":"STARLINK-2381","OBJECT_ID":"2021-018P","CENTER_NAME":"EARTH","REF_FRAME":"TEME","TIME_SYSTEM":"UTC","MEAN_ELEMENT_THEORY":"SGP4","EPOCH":"2021-07-02T14:00:01.999872","MEAN_MOTION":15.08674285,"ECCENTRICITY":0.000151,"INCLINATION":53.0484,"RA_OF_ASC_NODE":352.424,"ARG_OF_PERICENTER":75.8583,"MEAN_ANOMALY":159.9459,"EPHEMERIS_TYPE":0,"CLASSIFICATION_TYPE":"U","NORAD_CAT_ID":47800,"ELEMENT_SET_NO":999,"REV_AT_EPOCH":364,"BSTAR":-0.072829,"MEAN_MOTION_DOT":-0.01068303,"MEAN_MOTION_DDOT":0,"SEMIMAJOR_AXIS":6918.387,"PERIOD":95.448,"APOAPSIS":541.297,"PERIAPSIS":539.207,"OBJECT_TYPE":"PAYLOAD","RCS_SIZE":"LARGE","COUNTRY_CODE":"US","LAUNCH_DATE":"2021-03-11","SITE":"AFETR","DECAY_DATE":null,"DECAYED":0,"FILE":3068555,"GP_ID":180168407,"TLE_LINE0":"0 STARLINK-2381","TLE_LINE1":"1 47800U 21018P   21183.58335648 -.01068303  00000-0 -72829-1 0  9990","TLE_LINE2":"2 47800  53.0484 352.4240 0001510  75.8583 159.9459 15.08674285  3649"},"version":"v1.0","launch":"600f9a718f798e2a4d5f979d","longitude":102.75683433296949,"latitude":15.449720520733926,"height_km":542.3435703832929,"velocity_kms":7.59391641001718,"id":"6053aba97112b20006970e21"},{"spaceTrack":{"CCSDS_OMM_VERS":"2.0","COMMENT":"GENERATED VIA SPACE-TRACK.ORG API","CREATION_DATE":"2021-07-02T17:51:43","ORIGINATOR":"18 SPCS","OBJECT_NAME":"STARLINK-2382","OBJECT_ID":"2021-018Q","CENTER_NAME":"EARTH","REF_FRAME":"TEME","TIME_SYSTEM":"UTC","MEAN_ELEMENT_THEORY":"SGP4","EPOCH":"2021-07-02T14:00:01.999872","MEAN_MOTION":15.06406701,"ECCENTRICITY":0.0001026,"INCLINATION":53.0536,"RA_OF_ASC_NODE":358.0598,"ARG_OF_PERICENTER":48.024,"MEAN_ANOMALY":93.1141,"EPHEMERIS_TYPE":0,"CLASSIFICATION_TYPE":"U","NORAD_CAT_ID":47801,"ELEMENT_SET_NO":999,"REV_AT_EPOCH":360,"BSTAR":-0.0013149,"MEAN_MOTION_DOT":-0.00019816,"MEAN_MOTION_DDOT":0,"SEMIMAJOR_AXIS":6925.328,"PERIOD":95.592,"APOAPSIS":547.904,"PERIAPSIS":546.482,"OBJECT_TYPE":"PAYLOAD","RCS_SIZE":"LARGE","COUNTRY_CODE":"US","LAUNCH_DATE":"2021-03-11","SITE":"AFETR","DECAY_DATE":null,"DECAYED":0,"FILE":3068555,"GP_ID":180167655,"TLE_LINE0":"0 STARLINK-2382","TLE_LINE1":"1 47801U 21018Q   21183.58335648 -.00019816  00000-0 -13149-2 0  9996","TLE_LINE2":"2 47801  53.0536 358.0598 0001026  48.0240  93.1141 15.06406701  3607"},"version":"v1.0","launch":"600f9a718f798e2a4d5f979d","longitude":26.763912115686253,"latitude":-51.42510575908413,"height_km":565.4528236231617,"velocity_kms":7.578047077821156,"id":"6053aba97112b20006970e26"},{"spaceTrack":{"CCSDS_OMM_VERS":"2.0","COMMENT":"GENERATED VIA SPACE-TRACK.ORG API","CREATION_DATE":"2021-07-02T15:16:11","ORIGINATOR":"18 SPCS","OBJECT_NAME":"STARLINK-2390","OBJECT_ID":"2021-018Y","CENTER_NAME":"EARTH","REF_FRAME":"TEME","TIME_SYSTEM":"UTC","MEAN_ELEMENT_THEORY":"SGP4","EPOCH":"2021-07-02T08:32:42.309600","MEAN_MOTION":15.06397658,"ECCENTRICITY":0.00021,"INCLINATION":53.0557,"RA_OF_ASC_NODE":14.0807,"ARG_OF_PERICENTER":103.0206,"MEAN_ANOMALY":257.1018,"EPHEMERIS_TYPE":0,"CLASSIFICATION_TYPE":"U","NORAD_CAT_ID":47809,"ELEMENT_SET_NO":999,"REV_AT_EPOCH":1831,"BSTAR":0.000082494,"MEAN_MOTION_DOT":0.00000947,"MEAN_MOTION_DDOT":0,"SEMIMAJOR_AXIS":6925.356,"PERIOD":95.592,"APOAPSIS":548.675,"PERIAPSIS":545.766,"OBJECT_TYPE":"PAYLOAD","RCS_SIZE":"LARGE","COUNTRY_CODE":"US","LAUNCH_DATE":"2021-03-11","SITE":"AFETR","DECAY_DATE":null,"DECAYED":0,"FILE":3068526,"GP_ID":180145916,"TLE_LINE0":"0 STARLINK-2390","TLE_LINE1":"1 47809U 21018Y   21183.35604525  .00000947  00000-0  82494-4 0  9996","TLE_LINE2":"2 47809  53.0557  14.0807 0002100 103.0206 257.1018 15.06397658 18317"},"version":"v1.0","launch":"600f9a718f798e2a4d5f979d","longitude":59.13447147823302,"latitude":-46.61856801301657,"height_km":564.5173260785477,"velocity_kms":7.577984671835279,"id":"6053aba97112b20006970e37"},{"spaceTrack":{"CCSDS_OMM_VERS":"2.0","COMMENT":"GENERATED VIA SPACE-TRACK.ORG API","CREATION_DATE":"2021-07-02T17:51:43","ORIGINATOR":"18 SPCS","OBJECT_NAME":"STARLINK-2415","OBJECT_ID":"2021-018AT","CENTER_NAME":"EARTH","REF_FRAME":"TEME","TIME_SYSTEM":"UTC","MEAN_ELEMENT_THEORY":"SGP4","EPOCH":"2021-07-01T23:19:23.026656","MEAN_MOTION":15.06397213,"ECCENTRICITY":0.0002183,"INCLINATION":53.0566,"RA_OF_ASC_NODE":25.8076,"ARG_OF_PERICENTER":102.578,"MEAN_ANOMALY":257.5453,"EPHEMERIS_TYPE":0,"CLASSIFICATION_TYPE":"U","NORAD_CAT_ID":47828,"ELEMENT_SET_NO":999,"REV_AT_EPOCH":1846,"BSTAR":0.000087531,"MEAN_MOTION_DOT":0.00001022,"MEAN_MOTION_DDOT":0,"SEMIMAJOR_AXIS":6925.357,"PERIOD":95.592,"APOAPSIS":548.734,"PERIAPSIS":545.71,"OBJECT_TYPE":"PAYLOAD","RCS_SIZE":"LARGE","COUNTRY_CODE":"US","LAUNCH_DATE":"2021-03-11","SITE":"AFETR","DECAY_DATE":null,"DECAYED":0,"FILE":3068555,"GP_ID":180168910,"TLE_LINE0":"0 STARLINK-2415","TLE_LINE1":"1 47828U 21018AT  21182.97179429  .00001022  00000-0  87531-4 0  9996","TLE_LINE2":"2 47828  53.0566  25.8076 0002183 102.5780 257.5453 15.06397213 18468"},"version":"v1.0","launch":"600f9a718f798e2a4d5f979d","longitude":-31.758236882725658,"latitude":-31.073026760737033,"height_km":557.374417256281,"velocity_kms":7.582411819741635,"id":"6053aba97112b20006970e36"},{"spaceTrack":{"CCSDS_OMM_VERS":"2.0","COMMENT":"GENERATED VIA SPACE-TRACK.ORG API","CREATION_DATE":"2021-07-02T17:51:43","ORIGINATOR":"18 SPCS","OBJECT_NAME":"STARLINK-2347","OBJECT_ID":"2021-018J","CENTER_NAME":"EARTH","REF_FRAME":"TEME","TIME_SYSTEM":"UTC","MEAN_ELEMENT_THEORY":"SGP4","EPOCH":"2021-07-02T14:00:01.999872","MEAN_MOTION":15.0639579,"ECCENTRICITY":0.0001389,"INCLINATION":53.0511,"RA_OF_ASC_NODE":353.06,"ARG_OF_PERICENTER":92.5975,"MEAN_ANOMALY":50.8596,"EPHEMERIS_TYPE":0,"CLASSIFICATION_TYPE":"U","NORAD_CAT_ID":47795,"ELEMENT_SET_NO":999,"REV_AT_EPOCH":364,"BSTAR":-0.00018106,"MEAN_MOTION_DOT":-0.00002977,"MEAN_MOTION_DDOT":0,"SEMIMAJOR_AXIS":6925.361,"PERIOD":95.592,"APOAPSIS":548.188,"PERIAPSIS":546.265,"OBJECT_TYPE":"PAYLOAD","RCS_SIZE":"MEDIUM","COUNTRY_CODE":"US","LAUNCH_DATE":"2021-03-11","SITE":"AFETR","DECAY_DATE":null,"DECAYED":0,"FILE":3068555,"GP_ID":180168156,"TLE_LINE0":"0 STARLINK-2347","TLE_LINE1":"1 47795U 21018J   21183.58335648 -.00002977  00000-0 -18106-3 0  9997","TLE_LINE2":"2 47795  53.0511 353.0600 0001389  92.5975  50.8596 15.06395790  3645"},"version":"v1.0","launch":"600f9a718f798e2a4d5f979d","longitude":25.006394010296052,"latitude":-50.786964134964094,"height_km":565.7192404232483,"velocity_kms":7.577612384396689,"id":"6053aba97112b20006970e42"},{"spaceTrack":{"CCSDS_OMM_VERS":"2.0","COMMENT":"GENERATED VIA SPACE-TRACK.ORG API","CREATION_DATE":"2021-07-02T17:51:43","ORIGINATOR":"18 SPCS","OBJECT_NAME":"STARLINK-2377","OBJECT_ID":"2021-018L","CENTER_NAME":"EARTH","REF_FRAME":"TEME","TIME_SYSTEM":"UTC","MEAN_ELEMENT_THEORY":"SGP4","EPOCH":"2021-07-02T13:00:05.890176","MEAN_MOTION":15.06397421,"ECCENTRICITY":0.0001873,"INCLINATION":53.0559,"RA_OF_ASC_NODE":18.2456,"ARG_OF_PERICENTER":104.3484,"MEAN_ANOMALY":255.7713,"EPHEMERIS_TYPE":0,"CLASSIFICATION_TYPE":"U","NORAD_CAT_ID":47797,"ELEMENT_SET_NO":999,"REV_AT_EPOCH":1861,"BSTAR":0.000073968,"MEAN_MOTION_DOT":0.0000082,"MEAN_MOTION_DDOT":0,"SEMIMAJOR_AXIS":6925.356,"PERIOD":95.592,"APOAPSIS":548.519,"PERIAPSIS":545.924,"OBJECT_TYPE":"PAYLOAD","RCS_SIZE":"LARGE","COUNTRY_CODE":"US","LAUNCH_DATE":"2021-03-11","SITE":"AFETR","DECAY_DATE":null,"DECAYED":0,"FILE":3068555,"GP_ID":180167155,"TLE_LINE0":"0 STARLINK-2377","TLE_LINE1":"1 47797U 21018L   21183.54173484  .00000820  00000-0  73968-4 0  9994","TLE_LINE2":"2 47797  53.0559  18.2456 0001873 104.3484 255.7713 15.06397421 18616"},"version":"v1.0","launch":"600f9a718f798e2a4d5f979d","longitude":120.74182727100157,"latitude":5.6954861681005475,"height_km":547.7251250652789,"velocity_kms":7.589667383596432,"id":"6053aba97112b20006970e44"},{"spaceTrack":{"CCSDS_OMM_VERS":"2.0","COMMENT":"GENERATED VIA SPACE-TRACK.ORG API","CREATION_DATE":"2021-07-02T17:51:43","ORIGINATOR":"18 SPCS","OBJECT_NAME":"STARLINK-2380","OBJECT_ID":"2021-018N","CENTER_NAME":"EARTH","REF_FRAME":"TEME","TIME_SYSTEM":"UTC","MEAN_ELEMENT_THEORY":"SGP4","EPOCH":"2021-07-02T14:00:01.999872","MEAN_MOTION":15.06411795,"ECCENTRICITY":0.0001421,"INCLINATION":53.0526,"RA_OF_ASC_NODE":353.0613,"ARG_OF_PERICENTER":81.2756,"MEAN_ANOMALY":302.2208,"EPHEMERIS_TYPE":0,"CLASSIFICATION_TYPE":"U","NORAD_CAT_ID":47799,"ELEMENT_SET_NO":999,"REV_AT_EPOCH":363,"BSTAR":-0.0017384,"MEAN_MOTION_DOT":-0.00026089,"MEAN_MOTION_DDOT":0,"SEMIMAJOR_AXIS":6925.312,"PERIOD":95.591,"APOAPSIS":548.161,"PERIAPSIS":546.193,"OBJECT_TYPE":"PAYLOAD","RCS_SIZE":"LARGE","COUNTRY_CODE":"US","LAUNCH_DATE":"2021-03-11","SITE":"AFETR","DECAY_DATE":null,"DECAYED":0,"FILE":3068555,"GP_ID":180168656,"TLE_LINE0":"0 STARLINK-2380","TLE_LINE1":"1 47799U 21018N   21183.58335648 -.00026089  00000-0 -17384-2 0  9997","TLE_LINE2":"2 47799  53.0526 353.0613 0001421  81.2756 302.2208 15.06411795  3635"},"version":"v1.0","launch":"600f9a718f798e2a4d5f979d","longitude":-97.7726406681076,"latitude":12.114429696370069,"height_km":547.21886027452,"velocity_kms":7.590673164069112,"id":"6053aba97112b20006970e4f"}]